IRIDIUM 26              
1 24903U 97043A   25170.06601919  .00000331  00000+0  10485-3 0  9995
2 24903  86.3956 109.8337 0002491  85.1120 275.0361 14.37147586457018
IRIDIUM 22              
1 24907U 97043E   25170.55486379  .00000282  00000+0  90235-4 0  9991
2 24907  86.3961 113.1697 0002297  83.9718 276.1740 14.35960179457111
DUMMY MASS 1            
1 24925U 97048A   25169.96498267  .00000395  00000+0  40969-4 0  9992
2 24925  86.3352 134.5075 0008434 127.4005 232.7989 14.86988200505392
DUMMY MASS 2            
1 24926U 97048B   25170.33125782  .00000393  00000+0  40938-4 0  9999
2 24926  86.3353 135.9453 0008882 136.8994 223.2928 14.86740711505220
IRIDIUM 29              
1 24944U 97051A   25170.36797655  .00000411  00000+0  13354-3 0  9992
2 24944  86.3968 142.9830 0002092  87.3062 272.8375 14.36470271453585
IRIDIUM 33              
1 24946U 97051C   25170.35219044  .00000322  00000+0  10622-3 0  9990
2 24946  86.3883 142.2499 0010057  75.2866 284.9444 14.34894422453054
IRIDIUM 28              
1 24948U 97051E   25170.34036132  .00000337  00000+0  10628-3 0  9998
2 24948  86.3973 140.5100 0002790  86.0425 274.1091 14.37388032454151
IRIDIUM 36              
1 24967U 97056C   25170.58178727  .00000346  00000+0  10878-3 0  9994
2 24967  86.3986 171.9923 0002392  83.0754 277.0715 14.37612086452564
